[{"ORDINAL":"1","COMMENT":"GENERATED VIA SPACETRACK.ORG API","ORIGINATOR":"JSPOC","NORAD_CAT_ID":"37851","OBJECT_NAME":"DICE 1","OBJECT_TYPE":"PAYLOAD","CLASSIFICATION_TYPE":"U","INTLDES":"11061B","EPOCH":"2016-06-23 01:12:09","EPOCH_MICROSECONDS":"487584","MEAN_MOTION":"14.99291277","ECCENTRICITY":"0.0193418","INCLINATION":"101.7353","RA_OF_ASC_NODE":"214.9876","ARG_OF_PERICENTER":"70.3321","MEAN_ANOMALY":"291.8645","EPHEMERIS_TYPE":"0","ELEMENT_SET_NO":"999","REV_AT_EPOCH":"25269","BSTAR":"0.00016031","MEAN_MOTION_DOT":"2.748e-05","MEAN_MOTION_DDOT":"0","FILE":"2050558","TLE_LINE0":"0 DICE 1","TLE_LINE1":"1 37851U 11061B   16175.05010981  .00002748  00000-0  16031-3 0  9992","TLE_LINE2":"2 37851 101.7353 214.9876 0193418  70.3321 291.8645 14.99291277252695","OBJECT_ID":"2011-061B","OBJECT_NUMBER":"37851","SEMIMAJOR_AXIS":"6947.221","PERIOD":"96.045","APOGEE":"703.458","PERIGEE":"434.715"},{"ORDINAL":"1","COMMENT":"GENERATED VIA SPACETRACK.ORG API","ORIGINATOR":"JSPOC","NORAD_CAT_ID":"37852","OBJECT_NAME":"DICE 2","OBJECT_TYPE":"PAYLOAD","CLASSIFICATION_TYPE":"U","INTLDES":"11061C","EPOCH":"2016-06-22 20:20:14","EPOCH_MICROSECONDS":"152128","MEAN_MOTION":"15.01980004","ECCENTRICITY":"0.0178039","INCLINATION":"101.7198","RA_OF_ASC_NODE":"219.6769","ARG_OF_PERICENTER":"59.4349","MEAN_ANOMALY":"302.4294","EPHEMERIS_TYPE":"0","ELEMENT_SET_NO":"999","REV_AT_EPOCH":"25287","BSTAR":"0.00015947","MEAN_MOTION_DOT":"2.791e-05","MEAN_MOTION_DDOT":"0","FILE":"2050411","TLE_LINE0":"0 DICE 2","TLE_LINE1":"1 37852U 11061C   16174.84738602  .00002791  00000-0  15947-3 0  9999","TLE_LINE2":"2 37852 101.7198 219.6769 0178039  59.4349 302.4294 15.01980004252872","OBJECT_ID":"2011-061C","OBJECT_NUMBER":"37852","SEMIMAJOR_AXIS":"6938.928","PERIOD":"95.873","APOGEE":"684.333","PERIGEE":"437.253"},{"ORDINAL":"1","COMMENT":"GENERATED VIA SPACETRACK.ORG API","ORIGINATOR":"JSPOC","NORAD_CAT_ID":"37853","OBJECT_NAME":"RAX-2","OBJECT_TYPE":"PAYLOAD","CLASSIFICATION_TYPE":"U","INTLDES":"11061D","EPOCH":"2016-06-22 19:47:13","EPOCH_MICROSECONDS":"105536","MEAN_MOTION":"14.99788425","ECCENTRICITY":"0.0182188","INCLINATION":"101.7144","RA_OF_ASC_NODE":"215.0975","ARG_OF_PERICENTER":"67.1106","MEAN_ANOMALY":"294.9221","EPHEMERIS_TYPE":"0","ELEMENT_SET_NO":"999","REV_AT_EPOCH":"25274","BSTAR":"0.00014852","MEAN_MOTION_DOT":"2.457e-05","MEAN_MOTION_DDOT":"0","FILE":"2050456","TLE_LINE0":"0 RAX-2","TLE_LINE1":"1 37853U 11061D   16174.82445724  .00002457  00000-0  14852-3 0  9991","TLE_LINE2":"2 37853 101.7144 215.0975 0182188  67.1106 294.9221 14.99788425252740","OBJECT_ID":"2011-061D","OBJECT_NUMBER":"37853","SEMIMAJOR_AXIS":"6945.686","PERIOD":"96.013","APOGEE":"694.093","PERIGEE":"441.009"},{"ORDINAL":"1","COMMENT":"GENERATED VIA SPACETRACK.ORG API","ORIGINATOR":"JSPOC","NORAD_CAT_ID":"37854","OBJECT_NAME":"AUBIESAT-1","OBJECT_TYPE":"PAYLOAD","CLASSIFICATION_TYPE":"U","INTLDES":"11061E","EPOCH":"2016-06-23 02:20:39","EPOCH_MICROSECONDS":"273792","MEAN_MOTION":"15.02258137","ECCENTRICITY":"0.0173081","INCLINATION":"101.7026","RA_OF_ASC_NODE":"220.6789","ARG_OF_PERICENTER":"56.4696","MEAN_ANOMALY":"305.2913","EPHEMERIS_TYPE":"0","ELEMENT_SET_NO":"999","REV_AT_EPOCH":"25298","BSTAR":"0.00012707","MEAN_MOTION_DOT":"2.167e-05","MEAN_MOTION_DDOT":"0","FILE":"2050604","TLE_LINE0":"0 AUBIESAT-1","TLE_LINE1":"1 37854U 11061E   16175.09767678  .00002167  00000-0  12707-3 0  9992","TLE_LINE2":"2 37854 101.7026 220.6789 0173081  56.4696 305.2913 15.02258137252989","OBJECT_ID":"2011-061E","OBJECT_NUMBER":"37854","SEMIMAJOR_AXIS":"6938.071","PERIOD":"95.855","APOGEE":"680.021","PERIGEE":"439.852"},{"ORDINAL":"1","COMMENT":"GENERATED VIA SPACETRACK.ORG API","ORIGINATOR":"JSPOC","NORAD_CAT_ID":"37855","OBJECT_NAME":"M-CUBED\/EXP-1 PRIME","OBJECT_TYPE":"PAYLOAD","CLASSIFICATION_TYPE":"U","INTLDES":"11061F","EPOCH":"2016-06-22 20:30:54","EPOCH_MICROSECONDS":"33984","MEAN_MOTION":"15.0117898","ECCENTRICITY":"0.01868","INCLINATION":"101.7165","RA_OF_ASC_NODE":"218.378","ARG_OF_PERICENTER":"61.5027","MEAN_ANOMALY":"300.4854","EPHEMERIS_TYPE":"0","ELEMENT_SET_NO":"999","REV_AT_EPOCH":"25284","BSTAR":"0.00015892","MEAN_MOTION_DOT":"2.811e-05","MEAN_MOTION_DDOT":"0","FILE":"2050364","TLE_LINE0":"0 M-CUBED\/EXP-1 PRIME","TLE_LINE1":"1 37855U 11061F   16174.85479206  .00002811  00000-0  15892-3 0  9997","TLE_LINE2":"2 37855 101.7165 218.3780 0186800  61.5027 300.4854 15.01178980252849","OBJECT_ID":"2011-061F","OBJECT_NUMBER":"37855","SEMIMAJOR_AXIS":"6941.396","PERIOD":"95.924","APOGEE":"692.926","PERIGEE":"433.596"},{"ORDINAL":"1","COMMENT":"GENERATED VIA SPACETRACK.ORG API","ORIGINATOR":"JSPOC","NORAD_CAT_ID":"37867","OBJECT_NAME":"COSMOS 2476 (GLONASS)","OBJECT_TYPE":"PAYLOAD","CLASSIFICATION_TYPE":"U","INTLDES":"11064A","EPOCH":"2016-06-23 07:00:30","EPOCH_MICROSECONDS":"909888","MEAN_MOTION":"2.13105506","ECCENTRICITY":"0.0019616","INCLINATION":"64.4854","RA_OF_ASC_NODE":"196.3523","ARG_OF_PERICENTER":"248.7185","MEAN_ANOMALY":"111.1338","EPHEMERIS_TYPE":"0","ELEMENT_SET_NO":"999","REV_AT_EPOCH":"3612","BSTAR":"0.0001","MEAN_MOTION_DOT":"4.4e-07","MEAN_MOTION_DDOT":"0","FILE":"2050715","TLE_LINE0":"0 COSMOS 2476 (GLONASS)","TLE_LINE1":"1 37867U 11064A   16175.29202442  .00000044  00000-0  10000-3 0  9990","TLE_LINE2":"2 37867  64.4854 196.3523 0019616 248.7185 111.1338  2.13105506 36124","OBJECT_ID":"2011-064A","OBJECT_NUMBER":"37867","SEMIMAJOR_AXIS":"25507.744","PERIOD":"675.721","APOGEE":"19179.645","PERIGEE":"19079.573"},{"ORDINAL":"1","COMMENT":"GENERATED VIA SPACETRACK.ORG API","ORIGINATOR":"JSPOC","NORAD_CAT_ID":"37868","OBJECT_NAME":"COSMOS 2477 (GLONASS)","OBJECT_TYPE":"PAYLOAD","CLASSIFICATION_TYPE":"U","INTLDES":"11064B","EPOCH":"2016-06-22 16:45:19","EPOCH_MICROSECONDS":"697760","MEAN_MOTION":"2.13101905","ECCENTRICITY":"0.0017387","INCLINATION":"64.495","RA_OF_ASC_NODE":"196.4127","ARG_OF_PERICENTER":"249.5648","MEAN_ANOMALY":"193.9738","EPHEMERIS_TYPE":"0","ELEMENT_SET_NO":"999","REV_AT_EPOCH":"3606","BSTAR":"0","MEAN_MOTION_DOT":"8.7e-07","MEAN_MOTION_DDOT":"0","FILE":"2050436","TLE_LINE0":"0 COSMOS 2477 (GLONASS)","TLE_LINE1":"1 37868U 11064B   16174.69814465  .00000087  00000-0  00000+0 0  9990","TLE_LINE2":"2 37868  64.4950 196.4127 0017387 249.5648 193.9738  2.13101905 36063","OBJECT_ID":"2011-064B","OBJECT_NUMBER":"37868","SEMIMAJOR_AXIS":"25508.032","PERIOD":"675.733","APOGEE":"19174.247","PERIGEE":"19085.546"},{"ORDINAL":"1","COMMENT":"GENERATED VIA SPACETRACK.ORG API","ORIGINATOR":"JSPOC","NORAD_CAT_ID":"37869","OBJECT_NAME":"COSMOS 2475 (GLONASS)","OBJECT_TYPE":"PAYLOAD","CLASSIFICATION_TYPE":"U","INTLDES":"11064C","EPOCH":"2016-06-23 02:46:13","EPOCH_MICROSECONDS":"710144","MEAN_MOTION":"2.1310492","ECCENTRICITY":"0.0022962","INCLINATION":"64.5028","RA_OF_ASC_NODE":"196.3873","ARG_OF_PERICENTER":"273.6793","MEAN_ANOMALY":"86.121","EPHEMERIS_TYPE":"0","ELEMENT_SET_NO":"999","REV_AT_EPOCH":"3608","BSTAR":"0.0001","MEAN_MOTION_DOT":"0","MEAN_MOTION_DDOT":"0","FILE":"2050727","TLE_LINE0":"0 COSMOS 2475 (GLONASS)","TLE_LINE1":"1 37869U 11064C   16175.11543646  .00000000  00000-0  10000-3 0  9999","TLE_LINE2":"2 37869  64.5028 196.3873 0022962 273.6793  86.1210  2.13104920 36082","OBJECT_ID":"2011-064C","OBJECT_NUMBER":"37869","SEMIMAJOR_AXIS":"25507.791","PERIOD":"675.723","APOGEE":"19188.227","PERIGEE":"19071.085"},{"ORDINAL":"1","COMMENT":"GENERATED VIA SPACETRACK.ORG API","ORIGINATOR":"JSPOC","NORAD_CAT_ID":"37875","OBJECT_NAME":"YAOGAN 12","OBJECT_TYPE":"PAYLOAD","CLASSIFICATION_TYPE":"U","INTLDES":"11066B","EPOCH":"2016-06-23 07:54:25","EPOCH_MICROSECONDS":"82208","MEAN_MOTION":"15.24704024","ECCENTRICITY":"0.0010859","INCLINATION":"97.2274","RA_OF_ASC_NODE":"237.9404","ARG_OF_PERICENTER":"56.203","MEAN_ANOMALY":"14.053","EPHEMERIS_TYPE":"0","ELEMENT_SET_NO":"999","REV_AT_EPOCH":"25732","BSTAR":"7.1121e-05","MEAN_MOTION_DOT":"1.692e-05","MEAN_MOTION_DDOT":"0","FILE":"2050696","TLE_LINE0":"0 YAOGAN 12","TLE_LINE1":"1 37875U 11066B   16175.32945697  .00001692  00000-0  71121-4 0  9993","TLE_LINE2":"2 37875  97.2274 237.9404 0010859  56.2030  14.0530 15.24704024257322","OBJECT_ID":"2011-066B","OBJECT_NUMBER":"37875","SEMIMAJOR_AXIS":"6869.811","PERIOD":"94.444","APOGEE":"499.136","PERIGEE":"484.216"},{"ORDINAL":"1","COMMENT":"GENERATED VIA SPACETRACK.ORG API","ORIGINATOR":"JSPOC","NORAD_CAT_ID":"37930","OBJECT_NAME":"CHUANG XIN 1-03","OBJECT_TYPE":"PAYLOAD","CLASSIFICATION_TYPE":"U","INTLDES":"11068A","EPOCH":"2016-06-23 10:04:18","EPOCH_MICROSECONDS":"919488","MEAN_MOTION":"14.29684289","ECCENTRICITY":"0.0015506","INCLINATION":"98.4972","RA_OF_ASC_NODE":"165.7603","ARG_OF_PERICENTER":"18.2154","MEAN_ANOMALY":"341.9582","EPHEMERIS_TYPE":"0","ELEMENT_SET_NO":"999","REV_AT_EPOCH":"24201","BSTAR":"2.0665e-05","MEAN_MOTION_DOT":"1e-07","MEAN_MOTION_DDOT":"0","FILE":"2050663","TLE_LINE0":"0 CHUANG XIN 1-03","TLE_LINE1":"1 37930U 11068A   16175.41966342  .00000010  00000-0  20665-4 0  9997","TLE_LINE2":"2 37930  98.4972 165.7603 0015506  18.2154 341.9582 14.29684289242013","OBJECT_ID":"2011-068A","OBJECT_NUMBER":"37930","SEMIMAJOR_AXIS":"7170.923","PERIOD":"100.721","APOGEE":"803.907","PERIGEE":"781.669"}]